{
  "type": "FeatureCollection",
  "features": [
    {
      "type": "Feature",
      "properties": {
        "norad_id": 28890,
        "name": "BEIJING 1",
        "group": "dmc",
        "lat": -44.0793302260343,
        "lon": -70.41537814823002,
        "alt_km": 689.6642741005589,
        "timestamp": "2025-12-16T03:53:26.725382+00:00",
        "meta_object_name": "BEIJING 1",
        "meta_object_id": "2005-043A",
        "meta_epoch": "2025-12-15T08:49:03.854208",
        "meta_mean_motion": 14.63370099,
        "meta_eccentricity": 0.00154691,
        "meta_inclination": 98.2647,
        "meta_ra_of_asc_node": 116.8798,
        "meta_arg_of_pericenter": 133.4686,
        "meta_mean_anomaly": 226.7805,
        "meta_ephemeris_type": 0,
        "meta_classification_type": "U",
        "meta_norad_cat_id": 28890,
        "meta_element_set_no": 999,
        "meta_rev_at_epoch": 7376,
        "meta_bstar": 0.00012046339,
        "meta_mean_motion_dot": 5.75e-06,
        "meta_mean_motion_ddot": 0,
        "tle_line1": "1 28890U 05043A   25349.36740572  .00000575  00000+0  12046-3 0  9998",
        "tle_line2": "2 28890  98.2647 116.8798 0015469 133.4686 226.7805 14.63370099 73766"
      },
      "geometry": {
        "type": "Point",
        "coordinates": [
          -70.41537814823002,
          -44.0793302260343
        ]
      }
    },
    {
      "type": "Feature",
      "properties": {
        "norad_id": 33320,
        "name": "HUANJING 1A (HJ-1A)",
        "group": "dmc",
        "lat": 41.18360590438683,
        "lon": 165.07516175329374,
        "alt_km": 621.1800254572208,
        "timestamp": "2025-12-16T03:53:26.725405+00:00",
        "meta_object_name": "HUANJING 1A (HJ-1A)",
        "meta_object_id": "2008-041A",
        "meta_epoch": "2025-12-15T07:50:39.020064",
        "meta_mean_motion": 14.8340641,
        "meta_eccentricity": 0.00200094,
        "meta_inclination": 97.6541,
        "meta_ra_of_asc_node": 337.5176,
        "meta_arg_of_pericenter": 26.1998,
        "meta_mean_anomaly": 334.0224,
        "meta_ephemeris_type": 0,
        "meta_classification_type": "U",
        "meta_norad_cat_id": 33320,
        "meta_element_set_no": 999,
        "meta_rev_at_epoch": 93114,
        "meta_bstar": 0.00028289196,
        "meta_mean_motion_dot": 2.278e-05,
        "meta_mean_motion_ddot": 0,
        "tle_line1": "1 33320U 08041A   25349.32684051  .00002278  00000+0  28289-3 0  9996",
        "tle_line2": "2 33320  97.6541 337.5176 0020009  26.1998 334.0224 14.83406410931140"
      },
      "geometry": {
        "type": "Point",
        "coordinates": [
          165.07516175329374,
          41.18360590438683
        ]
      }
    },
    {
      "type": "Feature",
      "properties": {
        "norad_id": 33321,
        "name": "HUANJING 1B (HJ-1B)",
        "group": "dmc",
        "lat": -8.349560071115196,
        "lon": -16.864831308169563,
        "alt_km": 616.5785345089926,
        "timestamp": "2025-12-16T03:53:26.725420+00:00",
        "meta_object_name": "HUANJING 1B (HJ-1B)",
        "meta_object_id": "2008-041B",
        "meta_epoch": "2025-12-15T08:29:39.825888",
        "meta_mean_motion": 14.82833651,
        "meta_eccentricity": 0.00382064,
        "meta_inclination": 97.6402,
        "meta_ra_of_asc_node": 341.2339,
        "meta_arg_of_pericenter": 67.4726,
        "meta_mean_anomaly": 293.0525,
        "meta_ephemeris_type": 0,
        "meta_classification_type": "U",
        "meta_norad_cat_id": 33321,
        "meta_element_set_no": 999,
        "meta_rev_at_epoch": 93116,
        "meta_bstar": 0.00029321683,
        "meta_mean_motion_dot": 2.352e-05,
        "meta_mean_motion_ddot": 0,
        "tle_line1": "1 33321U 08041B   25349.35393317  .00002352  00000+0  29322-3 0  9994",
        "tle_line2": "2 33321  97.6402 341.2339 0038206  67.4726 293.0525 14.82833651931165"
      },
      "geometry": {
        "type": "Point",
        "coordinates": [
          -16.864831308169563,
          -8.349560071115196
        ]
      }
    },
    {
      "type": "Feature",
      "properties": {
        "norad_id": 33446,
        "name": "YAOGAN-4",
        "group": "dmc",
        "lat": -78.76105500586532,
        "lon": 55.769475334082635,
        "alt_km": 622.08936764401,
        "timestamp": "2025-12-16T03:53:26.725432+00:00",
        "meta_object_name": "YAOGAN-4",
        "meta_object_id": "2008-061A",
        "meta_epoch": "2025-12-15T07:16:32.228256",
        "meta_mean_motion": 14.82691617,
        "meta_eccentricity": 0.00133933,
        "meta_inclination": 97.918,
        "meta_ra_of_asc_node": 279.3773,
        "meta_arg_of_pericenter": 314.3487,
        "meta_mean_anomaly": 45.6628,
        "meta_ephemeris_type": 0,
        "meta_classification_type": "U",
        "meta_norad_cat_id": 33446,
        "meta_element_set_no": 999,
        "meta_rev_at_epoch": 91841,
        "meta_bstar": 0.00017368353,
        "meta_mean_motion_dot": 1.349e-05,
        "meta_mean_motion_ddot": 0,
        "tle_line1": "1 33446U 08061A   25349.30315079  .00001349  00000+0  17368-3 0  9990",
        "tle_line2": "2 33446  97.9180 279.3773 0013393 314.3487  45.6628 14.82691617918412"
      },
      "geometry": {
        "type": "Point",
        "coordinates": [
          55.769475334082635,
          -78.76105500586532
        ]
      }
    },
    {
      "type": "Feature",
      "properties": {
        "norad_id": 35681,
        "name": "DEIMOS-1",
        "group": "dmc",
        "lat": -62.3292980021609,
        "lon": 165.58784065790869,
        "alt_km": 653.839545250873,
        "timestamp": "2025-12-16T03:53:26.725444+00:00",
        "meta_object_name": "DEIMOS-1",
        "meta_object_id": "2009-041A",
        "meta_epoch": "2025-12-15T08:38:22.964928",
        "meta_mean_motion": 14.74959069,
        "meta_eccentricity": 0.00027039,
        "meta_inclination": 97.7148,
        "meta_ra_of_asc_node": 149.8409,
        "meta_arg_of_pericenter": 75.5264,
        "meta_mean_anomaly": 284.6246,
        "meta_ephemeris_type": 0,
        "meta_classification_type": "U",
        "meta_norad_cat_id": 35681,
        "meta_element_set_no": 999,
        "meta_rev_at_epoch": 87978,
        "meta_bstar": 0.00017355814,
        "meta_mean_motion_dot": 1.119e-05,
        "meta_mean_motion_ddot": 0,
        "tle_line1": "1 35681U 09041A   25349.35998802  .00001119  00000+0  17356-3 0  9990",
        "tle_line2": "2 35681  97.7148 149.8409 0002703  75.5264 284.6246 14.74959069879782"
      },
      "geometry": {
        "type": "Point",
        "coordinates": [
          165.58784065790869,
          -62.3292980021609
        ]
      }
    },
    {
      "type": "Feature",
      "properties": {
        "norad_id": 35683,
        "name": "UK-DMC 2",
        "group": "dmc",
        "lat": -39.561579621128494,
        "lon": 131.5166608627836,
        "alt_km": 650.3841441643526,
        "timestamp": "2025-12-16T03:53:26.725455+00:00",
        "meta_object_name": "UK-DMC 2",
        "meta_object_id": "2009-041C",
        "meta_epoch": "2025-12-15T08:32:34.225152",
        "meta_mean_motion": 14.75631036,
        "meta_eccentricity": 0.00014829,
        "meta_inclination": 97.8556,
        "meta_ra_of_asc_node": 124.1841,
        "meta_arg_of_pericenter": 97.2578,
        "meta_mean_anomaly": 262.88,
        "meta_ephemeris_type": 0,
        "meta_classification_type": "U",
        "meta_norad_cat_id": 35683,
        "meta_element_set_no": 999,
        "meta_rev_at_epoch": 87945,
        "meta_bstar": 0.00024105001,
        "meta_mean_motion_dot": 1.596e-05,
        "meta_mean_motion_ddot": 0,
        "tle_line1": "1 35683U 09041C   25349.35595168  .00001596  00000+0  24105-3 0  9999",
        "tle_line2": "2 35683  97.8556 124.1841 0001482  97.2578 262.8800 14.75631036879456"
      },
      "geometry": {
        "type": "Point",
        "coordinates": [
          131.5166608627836,
          -39.561579621128494
        ]
      }
    },
    {
      "type": "Feature",
      "properties": {
        "norad_id": 40715,
        "name": "DMC3-FM1",
        "group": "dmc",
        "lat": 49.52528840311728,
        "lon": 46.31569402931898,
        "alt_km": 610.8104832723366,
        "timestamp": "2025-12-16T03:53:26.725467+00:00",
        "meta_object_name": "DMC3-FM1",
        "meta_object_id": "2015-032A",
        "meta_epoch": "2025-12-15T07:54:29.650176",
        "meta_mean_motion": 14.8544744,
        "meta_eccentricity": 0.00044511,
        "meta_inclination": 97.6694,
        "meta_ra_of_asc_node": 216.4277,
        "meta_arg_of_pericenter": 311.2325,
        "meta_mean_anomaly": 48.8506,
        "meta_ephemeris_type": 0,
        "meta_classification_type": "U",
        "meta_norad_cat_id": 40715,
        "meta_element_set_no": 999,
        "meta_rev_at_epoch": 56261,
        "meta_bstar": 0.00017136186,
        "meta_mean_motion_dot": 1.426e-05,
        "meta_mean_motion_ddot": 0,
        "tle_line1": "1 40715U 15032A   25349.32950984  .00001426  00000+0  17136-3 0  9994",
        "tle_line2": "2 40715  97.6694 216.4277 0004451 311.2325  48.8506 14.85447440562612"
      },
      "geometry": {
        "type": "Point",
        "coordinates": [
          46.31569402931898,
          49.52528840311728
        ]
      }
    },
    {
      "type": "Feature",
      "properties": {
        "norad_id": 40716,
        "name": "DMC3-FM2",
        "group": "dmc",
        "lat": 9.44549867213496,
        "lon": -142.6093944651556,
        "alt_km": 611.8410979185019,
        "timestamp": "2025-12-16T03:53:26.725477+00:00",
        "meta_object_name": "DMC3-FM2",
        "meta_object_id": "2015-032B",
        "meta_epoch": "2025-12-15T08:26:52.874304",
        "meta_mean_motion": 14.85450337,
        "meta_eccentricity": 0.00051046,
        "meta_inclination": 97.6752,
        "meta_ra_of_asc_node": 217.8952,
        "meta_arg_of_pericenter": 317.2988,
        "meta_mean_anomaly": 42.783,
        "meta_ephemeris_type": 0,
        "meta_classification_type": "U",
        "meta_norad_cat_id": 40716,
        "meta_element_set_no": 999,
        "meta_rev_at_epoch": 56261,
        "meta_bstar": 0.00016991926,
        "meta_mean_motion_dot": 1.414e-05,
        "meta_mean_motion_ddot": 0,
        "tle_line1": "1 40716U 15032B   25349.35200086  .00001414  00000+0  16992-3 0  9995",
        "tle_line2": "2 40716  97.6752 217.8952 0005104 317.2988  42.7830 14.85450337562612"
      },
      "geometry": {
        "type": "Point",
        "coordinates": [
          -142.6093944651556,
          9.44549867213496
        ]
      }
    },
    {
      "type": "Feature",
      "properties": {
        "norad_id": 40717,
        "name": "DMC3-FM3",
        "group": "dmc",
        "lat": -72.17251286588176,
        "lon": 15.49993315061947,
        "alt_km": 618.084465040748,
        "timestamp": "2025-12-16T03:53:26.725488+00:00",
        "meta_object_name": "DMC3-FM3",
        "meta_object_id": "2015-032C",
        "meta_epoch": "2025-12-15T08:58:03.118944",
        "meta_mean_motion": 14.85434006,
        "meta_eccentricity": 0.00044876,
        "meta_inclination": 97.6806,
        "meta_ra_of_asc_node": 219.5508,
        "meta_arg_of_pericenter": 318.9588,
        "meta_mean_anomaly": 41.129,
        "meta_ephemeris_type": 0,
        "meta_classification_type": "U",
        "meta_norad_cat_id": 40717,
        "meta_element_set_no": 999,
        "meta_rev_at_epoch": 56262,
        "meta_bstar": 4.7211657e-05,
        "meta_mean_motion_dot": 3.55e-06,
        "meta_mean_motion_ddot": 0,
        "tle_line1": "1 40717U 15032C   25349.37364721  .00000355  00000+0  47212-4 0  9998",
        "tle_line2": "2 40717  97.6806 219.5508 0004487 318.9588  41.1290 14.85434006562625"
      },
      "geometry": {
        "type": "Point",
        "coordinates": [
          15.49993315061947,
          -72.17251286588176
        ]
      }
    }
  ]
}